BEIDOU-2 IGSO-1 (C06)   
1 36828U 10036A   25297.57879450 -.00000068  00000+0  00000+0 0  9990
2 36828  54.2769 165.0947 0050841 216.3514 326.3268  1.00290837 55734
BEIDOU-2 G4 (C04)       
1 37210U 10057A   25297.67158674 -.00000100  00000+0  00000+0 0  9995
2 37210   3.0585  70.0748 0009647 178.4652 186.4895  1.00270634 54936
BEIDOU-2 IGSO-2 (C07)   
1 37256U 10068A   25295.62146750 -.00000196  00000+0  00000+0 0  9997
2 37256  47.9774 274.7760 0047363 217.7614 226.5684  1.00248503 54417
BEIDOU-2 IGSO-3 (C08)   
1 37384U 11013A   25294.84420201 -.00000197  00000+0  00000+0 0  9990
2 37384  62.0755  42.4125 0036537 182.8028 216.6883  1.00283809 53275
BEIDOU-2 IGSO-4 (C09)   
1 37763U 11038A   25295.63865760 -.00000006  00000+0  00000+0 0  9998
2 37763  54.5748 167.8028 0146614 229.5223 315.8266  1.00292059 52264
BEIDOU-2 IGSO-5 (C10)   
1 37948U 11073A   25297.92258448 -.00000159  00000+0  00000+0 0  9994
2 37948  48.1123 274.4574 0109263 222.1632 323.0973  1.00257912 50777
BEIDOU-2 G5 (C05)       
1 38091U 12008A   25298.13005037  .00000070  00000+0  00000+0 0  9992
2 38091   2.9837  70.8582 0009468 221.5925 206.8495  1.00271306 50015
BEIDOU-2 M3 (C11)       
1 38250U 12018A   25295.85318325 -.00000064  00000+0  00000+0 0  9997
2 38250  55.9621 312.8685 0024746 269.6388  90.1107  1.86229967 91521
BEIDOU-2 M4 (C12)       
1 38251U 12018B   25297.39628494 -.00000055  00000+0  00000+0 0  9990
2 38251  55.8631 312.0498 0015881 270.4921  89.3549  1.86232287 91551
BEIDOU-2 M6 (C14)       
1 38775U 12050B   25297.10722026 -.00000026  00000+0  00000+0 0  9990
2 38775  56.3364  70.7135 0010474 353.5933   6.3747  1.86230993 88913
BEIDOU-2 G6 (C02)       
1 38953U 12059A   25298.01587465 -.00000163  00000+0  00000+0 0  9996
2 38953   3.8207  75.9766 0006429 301.5442 105.9569  1.00271708 47552
BEIDOU-3S IGSO-1S (C31) 
1 40549U 15019A   25297.52891953 -.00000131  00000+0  00000+0 0  9999
2 40549  49.6453 298.3029 0040504 197.6198 177.4401  1.00251575 38711
BEIDOU-3S M2S (C58)     
1 40748U 15037A   25297.06418168 -.00000057  00000+0  00000+0 0  9999
2 40748  55.0815 310.1693 0012940 260.3209  99.5588  1.86229379 69725
BEIDOU-3S M1S (C57)     
1 40749U 15037B   25296.76405626 -.00000058  00000+0  00000+0 0  9992
2 40749  55.0785 310.1697 0002999 350.7818   9.2393  1.86254118 69720
BEIDOU-3S IGSO-2S (C56) 
1 40938U 15053A   25294.84292536 -.00000154  00000+0  00000+0 0  9998
2 40938  49.5959 261.6191 0061422 189.7961 338.2620  1.00282517 36963
BEIDOU-2 IGSO-6 (C13)   
1 41434U 16021A   25295.80981249 -.00000162  00000+0  00000+0 0  9998
2 41434  59.8958  40.4104 0058188 229.0133 147.9034  1.00264164 35106
BEIDOU-2 G7 (C03)       
1 41586U 16037A   25298.28284443 -.00000340  00000+0  00000+0 0  9998
2 41586   1.6346  67.1278 0005687 338.9046 200.2990  1.00270805  4533
BEIDOU-3 M1 (C19)       
1 43001U 17069A   25297.94665331 -.00000018  00000+0  00000+0 0  9991
2 43001  56.4853  70.8462 0007381 307.8245  52.0924  1.86231333 54221
BEIDOU-3 M2 (C20)       
1 43002U 17069B   25297.34798666 -.00000024  00000+0  00000+0 0  9991
2 43002  56.4841  70.9017 0005411 346.5889  13.3787  1.86230874 54206
BEIDOU-3 M7 (C27)       
1 43107U 18003A   25297.62872304 -.00000055  00000+0  00000+0 0  9993
2 43107  54.5393 310.5230 0002279  86.4003 273.6515  1.86232616 52967
BEIDOU-3 M8 (C28)       
1 43108U 18003B   25298.11017911 -.00000051  00000+0  00000+0 0  9990
2 43108  54.5318 310.4893 0005006 264.3251  95.6431  1.86231099 52987
BEIDOU-3 M4 (C22)       
1 43207U 18018A   25298.01488968 -.00000018  00000+0  00000+0 0  9992
2 43207  56.4444  70.9160 0004457  34.5614 325.4514  1.86231258 52367
BEIDOU-3 M3 (C21)       
1 43208U 18018B   25294.32276935 -.00000037  00000+0  00000+0 0  9993
2 43208  56.4410  71.0417 0005075 329.1266  30.8237  1.86231363 52299
BEIDOU-3 M9 (C29)       
1 43245U 18029A   25297.76052579 -.00000051  00000+0  00000+0 0  9999
2 43245  54.4093 308.1765 0002167 255.1396 104.8582  1.86232976 51516
BEIDOU-3 M10 (C30)      
1 43246U 18029B   25297.69570116 -.00000052  00000+0  00000+0 0  9995
2 43246  54.4068 308.2057 0003260 354.3078   5.7104  1.86229221 51493
BEIDOU-2 IGSO-7 (C16)   
1 43539U 18057A   25297.58090006 -.00000075  00000+0  00000+0 0  9999
2 43539  55.1687 165.1035 0091791 235.6764 314.1237  1.00272358 26769
BEIDOU-3 M5 (C23)       
1 43581U 18062A   25297.92053440  .00000027  00000+0  00000+0 0  9997
2 43581  54.0905 190.3048 0002890 322.7249  37.3407  1.86228849 49251
BEIDOU-3 M6 (C24)       
1 43582U 18062B   25296.70997635  .00000031  00000+0  00000+0 0  9991
2 43582  54.0902 190.3350 0006891  35.4198 324.7098  1.86229972 49236
BEIDOU-3 M12 (C26)      
1 43602U 18067A   25296.64724316  .00000032  00000+0  00000+0 0  9997
2 43602  54.1842 189.0634 0008670  35.0726 325.0702  1.86227770 48715
BEIDOU-3 M11 (C25)      
1 43603U 18067B   25296.24466302  .00000033  00000+0  00000+0 0  9993
2 43603  54.1816 189.0412 0005183  27.8504 332.2619  1.86227252 48734
BEIDOU-3 M13 (C32)      
1 43622U 18072A   25294.05376322 -.00000038  00000+0  00000+0 0  9995
2 43622  56.4149  70.5640 0004161 307.8858  52.0571  1.86231099 48204
BEIDOU-3 M14 (C33)      
1 43623U 18072B   25293.91923175 -.00000037  00000+0  00000+0 0  9993
2 43623  56.4158  70.5624 0002658   8.2884 351.6968  1.86231128 48196
BEIDOU-3 M16 (C35)      
1 43647U 18078A   25297.29950454 -.00000055  00000+0  00000+0 0  9990
2 43647  54.3062 308.2498 0006200  17.7378 342.3061  1.86232431 47764
BEIDOU-3 M15 (C34)      
1 43648U 18078B   25297.42869466 -.00000054  00000+0  00000+0 0  9997
2 43648  54.3017 308.2463 0002767  16.9179 343.1135  1.86232389 47786
BEIDOU-3 G1 (C59)       
1 43683U 18085A   25298.28891113 -.00000264  00000+0  00000+0 0  9996
2 43683   2.9819 103.9548 0002934  12.1966 161.7981  1.00267552 25703
BEIDOU-3 M17 (C36)      
1 43706U 18093A   25296.24235443  .00000032  00000+0  00000+0 0  9995
2 43706  54.1740 190.3365 0007577 301.2494 237.6274  1.86228451 47121
BEIDOU-3 M18 (C37)      
1 43707U 18093B   25295.83685036  .00000032  00000+0  00000+0 0  9997
2 43707  54.1746 190.3420 0006956 338.7467  21.3055  1.86230144 47111
BEIDOU-3 IGSO-1 (C38)   
1 44204U 19023A   25294.79687675 -.00000228  00000+0  00000+0 0  9997
2 44204  58.3620  40.1148 0026431 218.5589 176.1839  1.00260535  4823
BEIDOU-2 G8 (C01)       
1 44231U 19027A   25298.28977780 -.00000235  00000+0  00000+0 0  9996
2 44231   1.5348  74.5132 0007340 256.9005 311.2980  1.00267771 23729
BEIDOU-3 IGSO-2 (C39)   
1 44337U 19035A   25297.57702737 -.00000076  00000+0  00000+0 0  9994
2 44337  55.2157 160.9355 0037215 202.4392 356.1928  1.00286881 23303
BEIDOU-3 M24 (C46)      
1 44542U 19061A   25298.05619706  .00000027  00000+0  00000+0 0  9993
2 44542  54.4013 190.6596 0009221  15.2716 344.8415  1.86229469 41416
BEIDOU-3 M23 (C45)      
1 44543U 19061B   25296.84171417  .00000031  00000+0  00000+0 0  9996
2 44543  54.4006 190.6688 0005801   4.3822 174.3028  1.86229685 41391
BEIDOU-3 IGSO-3 (C40)   
1 44709U 19073A   25297.36850607 -.00000181  00000+0  00000+0 0  9993
2 44709  55.2092 283.4475 0045134 191.9491 167.8879  1.00258554 22092
BEIDOU-3 M22 (C44)      
1 44793U 19078A   25297.35985373 -.00000054  00000+0  00000+0 0  9998
2 44793  54.1525 308.1189 0004857  22.7953 337.2481  1.86232213 40250
BEIDOU-3 M21 (C43)      
1 44794U 19078B   25296.95943113 -.00000057  00000+0  00000+0 0  9993
2 44794  54.1262 308.0989 0003058   7.6559 352.3710  1.86227896 40256
BEIDOU-3 M19 (C41)      
1 44864U 19090A   25295.29874953 -.00000037  00000+0  00000+0 0  9994
2 44864  56.3494  70.6669 0016058 284.9991 236.9294  1.86231624 39803
BEIDOU-3 M20 (C42)      
1 44865U 19090B   25295.16108878 -.00000037  00000+0  00000+0 0  9997
2 44865  56.3507  70.7055 0013283 299.3103 219.9406  1.86231595 39781
BEIDOU-3 G2 (C60)       
1 45344U 20017A   25298.13429706 -.00000128  00000+0  00000+0 0  9998
2 45344   2.9075  42.8261 0002687 261.5019 217.8520  1.00271834 20907
BEIDOU-3 G3 (C61)       
1 45807U 20040A   25298.28284443 -.00000341  00000+0  00000+0 0  9998
2 45807   1.8697  66.0650 0004569 316.4099 223.7843  1.00277178 19716
BEIDOU-3 G4 (C62)       
1 56564U 23066A   25298.30183634 -.00000099  00000+0  00000+0 0  9994
2 56564   0.9265 298.3935 0004730 219.5129 144.6901  1.00273572  9047
BEIDOU-3 M28 (C50)      
1 58654U 23207A   25294.89013225 -.00000040  00000+0  00000+0 0  9997
2 58654  55.5396  70.3560 0000510 226.2554 133.7203  1.86229861 12405
BEIDOU-3 M26 (C48)      
1 58655U 23207B   25294.15125113 -.00000040  00000+0  00000+0 0  9997
2 58655  55.5409  70.3672 0002047 229.9628 130.0001  1.86231456 12379
BEIDOU-3 M25 (C47)      
1 61186U 24168B   25297.47397979 -.00000055  00000+0  00000+0 0  9992
2 61186  54.6849 310.4279 0005446 285.7261 259.0373  1.86230362  7395
BEIDOU-3 M27 (C49)      
1 61187U 24168C   25298.21934924 -.00000050  00000+0  00000+0 0  9998
2 61187  54.6798 310.3859 0001847 312.0906 147.3223  1.86230459  4884
